{
  "type": "FeatureCollection",
  "note_he": "שכבה גיאולוגית בסיסית — גבולות מקורבים (תיבות) לצורך ויזואליזציה ראשונית, לא שכבת GIS מדויקת.",
  "features": [
    {
      "type": "Feature",
      "properties": {
        "id": "central-mountain-backbone",
        "name_he": "רכס ההר המרכזי (הגליל, השומרון והרי יהודה)",
        "name_en": "Central Mountain Backbone (Galilee, Samaria, Judean Hills)",
        "rock_summary_he": "דולומיט וגיר קשה, קנומן-טורון (חבורת יהודה), כ-100-90 מיליון שנה; קפלים והרמה מאוחרת יותר (נאוגן)",
        "description_he": "זהו השלד ההררי של הארץ - רצועה רציפה של גבעות דולומיט וגיר קשה שנוצרו כמשקעים ימיים לפני כ-90-100 מיליון שנה ולאחר מכן הורמו והתקפלו. הסלע הקשה מתבלה בתהליכי קארסט וכך נוצרו מאות מערות (כמו מערת שולמית, מערת קשת), בורות ומעיינות קרסט לאורך הרכס. חשוב להסביר למטיילים שזהו גם אקוויפר ההר - מקור עיקרי למי התהום של הארץ.",
        "color": "#C2A472",
        "sources": [
          {
            "title": "חבורת יהודה - ויקיפדיה",
            "url": "https://he.wikipedia.org/wiki/חבורת_יהודה"
          },
          {
            "title": "Geology of Israel - Wikipedia",
            "url": "https://en.wikipedia.org/wiki/Geology_of_Israel"
          }
        ]
      },
      "geometry": {
        "type": "Polygon",
        "coordinates": [
          [
            [
              34.85,
              31.2
            ],
            [
              35.55,
              31.2
            ],
            [
              35.55,
              33.3
            ],
            [
              34.85,
              33.3
            ],
            [
              34.85,
              31.2
            ]
          ]
        ]
      }
    },
    {
      "type": "Feature",
      "properties": {
        "id": "jordan-rift-dead-sea",
        "name_he": "בקעת הירדן ובקע ים המלח",
        "name_en": "Jordan Rift Valley & Dead Sea Basin",
        "rock_summary_he": "משקעי בקע - חוואר, מלח, גבס וקונגלומרט, ניאוגן-קוורטרני (תצורות עמורה, לשון), עד כ-5 מיליון שנה",
        "description_he": "הבקעה נוצרה כתוצאה מתנועת גזירה שמאלית לאורך שבר ים המלח (הטרנספורם הסורי-אפריקאי), הגבול בין לוח ערב ללוח סיני-ישראל. בתוך הבקע הצטברו משקעי אגמים קדומים (כמו ימת הלשון) שיצרו את שכבות החוואר הלבנות סביב ים המלח, ותהליכי המסת מלח יוצרים היום בורות שקיעה מסוכנים. זהו האזור השפל ביותר על פני היבשה, ונקודה מרכזית להסבר הטקטוניקה של האזור.",
        "color": "#A85C32",
        "sources": [
          {
            "title": "בקע ים המלח - ויקיפדיה",
            "url": "https://he.wikipedia.org/wiki/בקע_ים_המלח"
          },
          {
            "title": "ימת הלשון - ויקיפדיה",
            "url": "https://he.wikipedia.org/wiki/ימת_הלשון"
          }
        ]
      },
      "geometry": {
        "type": "Polygon",
        "coordinates": [
          [
            [
              35.35,
              31.0
            ],
            [
              35.68,
              31.0
            ],
            [
              35.68,
              33.15
            ],
            [
              35.35,
              33.15
            ],
            [
              35.35,
              31.0
            ]
          ]
        ]
      }
    },
    {
      "type": "Feature",
      "properties": {
        "id": "golan-heights-basalt",
        "name_he": "רמת הגולן",
        "name_en": "Golan Heights Basalt Plateau",
        "rock_summary_he": "בזלת געשית, ניאוגן-קוורטרני, מכ-5 מיליון שנה ועד כ-100 אלף שנה",
        "description_he": "הרמה נבנתה משכבות בזלת שנפלטו במשך כ-5 מיליון שנה מהרי געש ובקעים באזור שדה הבזלת א-שמה, ועוביה המקסימלי מגיע לכ-750 מטר. פני השטח מפוזרים בגבעות חרוט סיגים (כמו החרמון הקטן ומירון גולן) ומכוסים באדמת בזלת פורייה. הבזלת הנקבובית משמשת אקוויפר טוב, ובמגעים בין שכבות בזלת לסלעי גיר בלתי חדירים פורצים מעיינות ומפלים כמו נחל דבורה וגמלא.",
        "color": "#4B4640",
        "sources": [
          {
            "title": "גאולוגיה של הגולן - ויקיפדיה",
            "url": "https://he.wikipedia.org/wiki/גאולוגיה_של_הגולן"
          },
          {
            "title": "חבורת בשן - ויקיפדיה",
            "url": "https://he.wikipedia.org/wiki/חבורת_בשן"
          }
        ]
      },
      "geometry": {
        "type": "Polygon",
        "coordinates": [
          [
            [
              35.65,
              32.6
            ],
            [
              35.95,
              32.6
            ],
            [
              35.95,
              33.3
            ],
            [
              35.65,
              33.3
            ],
            [
              35.65,
              32.6
            ]
          ]
        ]
      }
    },
    {
      "type": "Feature",
      "properties": {
        "id": "coastal-plain-kurkar",
        "name_he": "מישור החוף",
        "name_en": "Coastal Plain (Kurkar Sandstone & Dunes)",
        "rock_summary_he": "כורכר (אבן חול גירני מאובנת) וחולות, קוורטרני, כ-100 אלף שנה ועד היום",
        "description_he": "לאורך החוף נוצרו שלושה-ארבעה רכסי כורכר מקבילים לקו החוף - דיונות חול קדומות שהתאבנו בזמן ירידות והעלאות של מפלס הים. בין הרכסים נוצרו עמקים פוריים (בקעים) ששימשו לחקלאות ולהתיישבות, והכורכר עצמו שימש כאבן בנייה מרכזית (יפו, קיסריה). זהו האזור הצפוף ביותר באוכלוסין בישראל, והבנת רכסי הכורכר מסבירה את מיקומן של ערי החוף הקדומות.",
        "color": "#E3C16F",
        "sources": [
          {
            "title": "מישור החוף - המכלול",
            "url": "https://www.hamichlol.org.il/מישור_החוף"
          },
          {
            "title": "רכסי הכורכר - שביל הים",
            "url": "https://israelseatrail.org.il/רכסי-הכורכר/אוקיאנוגרפיה-וגיאולוגיה/"
          }
        ]
      },
      "geometry": {
        "type": "Polygon",
        "coordinates": [
          [
            [
              34.25,
              31.2
            ],
            [
              34.95,
              31.2
            ],
            [
              34.95,
              33.08
            ],
            [
              34.25,
              33.08
            ],
            [
              34.25,
              31.2
            ]
          ]
        ]
      }
    },
    {
      "type": "Feature",
      "properties": {
        "id": "shephelah",
        "name_he": "השפלה",
        "name_en": "Shephelah (Judean Foothills)",
        "rock_summary_he": "קירטון (גיר רך) וחוואר עם קרום נארי, אאוקן-סנון, כ-56-34 מיליון שנה",
        "description_he": "השפלה היא אגן שקוע בין ההר המרכזי למישור החוף, שהתמלא בסלעי קירטון וחוואר רכים המכוסים לעיתים בקרום נארי קשה. הרכות של הקירטון אפשרה לאורך הדורות לחצוב בו מאות מערות מלאכותיות (בית גוברין-מרשה, פארק עדולם) - תופעה ייחודית שחשוב להכיר. השפלה הייתה גם זירת מפגש היסטורית בין ההר לחוף (למשל קרב דוד וגוליית בעמק האלה).",
        "color": "#DDD6A3",
        "sources": [
          {
            "title": "שפלת יהודה - ויקיפדיה",
            "url": "https://he.wikipedia.org/wiki/שפלת_יהודה"
          }
        ]
      },
      "geometry": {
        "type": "Polygon",
        "coordinates": [
          [
            [
              34.8,
              31.4
            ],
            [
              35.05,
              31.4
            ],
            [
              35.05,
              31.9
            ],
            [
              34.8,
              31.9
            ],
            [
              34.8,
              31.4
            ]
          ]
        ]
      }
    },
    {
      "type": "Feature",
      "properties": {
        "id": "northern-central-negev",
        "name_he": "הנגב הצפוני-מרכזי (מכתשים)",
        "name_en": "Northern-Central Negev (Makhtesh Craters)",
        "rock_summary_he": "גיר, קירטון וחול נוביארי, קרטיקון-אאוקן (חבורת אבדת), כ-140-40 מיליון שנה",
        "description_he": "אזור מדברי המחשוף שכבות סלע צעירות יחסית (קירטון וגיר של חבורת אבדת) מעל שכבות עתיקות יותר, ובו נחשפים שלושת מכתשי הסחיפה הגדולים בעולם - רמון, הגדול והקטן. המכתשים נוצרו כתוצאה משילוב של קמרון א-סימטרי, שכבת גיר קשה מעל שכבות רכות, ונחל ניקוז בעל בסיס סחיפה נמוך שחשף בהדרגה את הליבה. זהו אתר המפתח להסביר תהליכי סחיפה וקריאת חתך גיאולוגי מלא (טריאס עד קרטיקון) בטיול אחד.",
        "color": "#D19A4B",
        "sources": [
          {
            "title": "מכתש רמון - ויקיפדיה",
            "url": "https://he.wikipedia.org/wiki/מכתש_רמון"
          },
          {
            "title": "ההיסטוריה של התפתחות המכתשים בנגב - עזרא זילברמן",
            "url": "https://earth.huji.ac.il/sites/default/files/earth/files/zilberman.pdf"
          }
        ]
      },
      "geometry": {
        "type": "Polygon",
        "coordinates": [
          [
            [
              34.2,
              30.0
            ],
            [
              35.4,
              30.0
            ],
            [
              35.4,
              31.4
            ],
            [
              34.2,
              31.4
            ],
            [
              34.2,
              30.0
            ]
          ]
        ]
      }
    },
    {
      "type": "Feature",
      "properties": {
        "id": "arava-eilat-mountains",
        "name_he": "ערבה והרי אילת",
        "name_en": "Arava Valley & Eilat Mountains",
        "rock_summary_he": "בסיס גרניט וגניס פרקמברי (כ-600-1000 מיליון שנה) מכוסה בחול נוביארי אדום, קמבריון-קרטיקון",
        "description_he": "הרי אילת הם הקצה הצפוני החשוף של המסיב הערבי-נובי, ובהם נחשף הסלע העתיק ביותר בישראל - גרניטים וגנייסים פרקמבריים בני כמיליארד שנה. מעליהם מונחים חולות אדומים (חול נוביארי) שיצרו נופים ציוריים כמו עמודי שלמה ומכרות תמנע העתיקים, ולכך מתלווה חשיפת מינרלים כמו נחושת. הערבה עצמה היא המשך בקע ים המלח דרומה, עם משקעי תצורת חצבה האדומים ומעיינות חמים לאורך קו השבר.",
        "color": "#9B6B8C",
        "sources": [
          {
            "title": "הרי אילת והים האדום - רשות הטבע והגנים",
            "url": "https://www.parks.org.il/area-south/as-eilat/"
          },
          {
            "title": "תמנע - עיצוב הנוף - מכון ישראלי לארכיאולוגיה",
            "url": "https://www.israeliarchaeology.org/תמנע-עיצוב-הנוף/"
          }
        ]
      },
      "geometry": {
        "type": "Polygon",
        "coordinates": [
          [
            [
              34.85,
              29.5
            ],
            [
              35.4,
              29.5
            ],
            [
              35.4,
              31.0
            ],
            [
              34.85,
              31.0
            ],
            [
              34.85,
              29.5
            ]
          ]
        ]
      }
    },
    {
      "type": "Feature",
      "properties": {
        "id": "jezreel-beit-shean-valleys",
        "name_he": "עמק יזרעאל ועמק בית שאן",
        "name_en": "Jezreel & Beit Shean Valleys",
        "rock_summary_he": "משקעי סחף ובזלת מקומית, ניאוגן-קוורטרני (תצורות גשר, עובדיה), עד כ-2 מיליון שנה",
        "description_he": "עמקי השבר הצפוניים (יזרעאל, חרוד, בית שאן) הם המשך צפוני-מערבי של מערכת בקע ים המלח, ובעברם הרחוק היו מחוברים לים התיכון. הקרקע השטוחה מורכבת ברובה מסחף עבה שהצטבר על גבי משקעי אגם קדום (תצורת עובדיה, גשר), עם מבצבצי בזלת מקומיים. הבנת מבנה השבר מסבירה גם את מיקומם של מעיינות וחמי מרפא (חמת גדר, גן השלושה) לאורך קווי השבר.",
        "color": "#7F9450",
        "sources": [
          {
            "title": "עמק יזרעאל - ויקיפדיה",
            "url": "https://he.wikipedia.org/wiki/עמק_יזרעאל"
          },
          {
            "title": "גיאולוגיה - רשות ניקוז ונחלים כינרת",
            "url": "https://kineret.org.il/מידע-ושירותים/גיאולוגיה/"
          }
        ]
      },
      "geometry": {
        "type": "Polygon",
        "coordinates": [
          [
            [
              35.05,
              32.4
            ],
            [
              35.65,
              32.4
            ],
            [
              35.65,
              32.75
            ],
            [
              35.05,
              32.75
            ],
            [
              35.05,
              32.4
            ]
          ]
        ]
      }
    }
  ]
}