{
  "type": "FeatureCollection",
  "note_he": "שכבה גיאולוגית מעמיקה — גזורה לגבול המדינה האמיתי, גבולות פנימיים מקורבים.",
  "features": [
    {
      "type": "Feature",
      "properties": {
        "id": "hermon-massif",
        "name_he": "מסיב החרמון",
        "name_en": "Mount Hermon Massif",
        "rock_summary_he": "גיר ודולומיט קשה, יורה-קרטיקון תחתון, כ-150-100 מיליון שנה, מקופל בקמר גבוה",
        "description_he": "החרמון הוא קמר (אנטיקלינה) גבוה שנוצר מסלעי גיר קשים ועתיקים יחסית לשאר ההר המרכזי, והתרומם משמעותית באירועים טקטוניים מאוחרים. הגובה הרב (2,814 מ') מאפשר מפגש מרשים בין קרסט אלפיני, שלג עונתי ומערכת מעיינות התחלת נהר הירדן (בניאס, דן) הנובעים ממגע הסלע הקרסטי עם הבזלת שמדרום. יש להסביר שזהו איזור גיאולוגי שונה מהותית מרמת הגולן הבזלתית שלרגליו.",
        "color": "#B0A98F",
        "sources": [
          {
            "title": "גאולוגיה של ישראל - ויקיפדיה",
            "url": "https://he.wikipedia.org/wiki/גאולוגיה_של_ישראל"
          }
        ]
      },
      "geometry": {
        "type": "Polygon",
        "coordinates": [
          [
            [
              35.62,
              33.26910122942644
            ],
            [
              35.620065,
              33.269536
            ],
            [
              35.631092,
              33.274565
            ],
            [
              35.652143,
              33.27666
            ],
            [
              35.66049,
              33.289261
            ],
            [
              35.698523,
              33.32267
            ],
            [
              35.716197,
              33.326727
            ],
            [
              35.729426,
              33.327812
            ],
            [
              35.73871669484966,
              33.33
            ],
            [
              35.77152301140979,
              33.33
            ],
            [
              35.802083,
              33.31249
            ],
            [
              35.768597,
              33.272699
            ],
            [
              35.775625,
              33.264896
            ],
            [
              35.803633,
              33.248463
            ],
            [
              35.807664,
              33.201721
            ],
            [
              35.830195,
              33.189991
            ],
            [
              35.833399,
              33.161129
            ],
            [
              35.82716507577074,
              33.15
            ],
            [
              35.62,
              33.15
            ],
            [
              35.62,
              33.26910122942644
            ]
          ]
        ]
      }
    },
    {
      "type": "Feature",
      "properties": {
        "id": "upper-galilee-ridge",
        "name_he": "ההר הגלילי העליון",
        "name_en": "Upper Galilee Ridge (Sakhnin/Bina/Deir Hanna Formations)",
        "rock_summary_he": "דולומיט גס-גביש (תצורת סכנין) וגיר (תצורת בענה), טורון-קנומן עליון, כ-93-90 מיליון שנה",
        "description_he": "הגליל העליון הוא החלק הגבוה והמפותל ביותר של הרכס המרכזי, בנוי בעיקר מדולומיט קשה של תצורת סכנין המעניק נוף טרשים אפור אופייני, לצד גיר דק-גביש מקורסט של תצורת בענה. עומק הקירטוף (קארסט) כאן הוא מהגבוהים בארץ, ולכן ריכוז מערות הענק (מערת קשת, מערת הכרמים) גבוה. חשוב להסביר שכאן גם המים הזורמים בנחלי הגליל (עמוד, כזיב) חוצבים קניונים עמוקים בסלע הקשה.",
        "color": "#C7B37E",
        "sources": [
          {
            "title": "מבואות: גיאולוגיה [הגליל העליון וחופו] - מטח",
            "url": "https://www.lib.cet.ac.il/pages/item.asp?item=12970"
          }
        ]
      },
      "geometry": {
        "type": "Polygon",
        "coordinates": [
          [
            [
              35.15,
              33.086197703253454
            ],
            [
              35.185273,
              33.083977
            ],
            [
              35.189614,
              33.085527
            ],
            [
              35.200673,
              33.092736
            ],
            [
              35.207184,
              33.094803
            ],
            [
              35.213178,
              33.094441
            ],
            [
              35.227338,
              33.091366
            ],
            [
              35.234469,
              33.090927
            ],
            [
              35.271469,
              33.101185
            ],
            [
              35.283665,
              33.101185
            ],
            [
              35.288825,
              33.099201
            ],
            [
              35.29462,
              33.096973
            ],
            [
              35.305783,
              33.089377
            ],
            [
              35.315704,
              33.079222
            ],
            [
              35.322629,
              33.067363
            ],
            [
              35.331931,
              33.057156
            ],
            [
              35.34516,
              33.05558
            ],
            [
              35.401591,
              33.067931
            ],
            [
              35.449443,
              33.085217
            ],
            [
              35.480139,
              33.087387
            ],
            [
              35.4851,
              33.102606
            ],
            [
              35.503703,
              33.130615
            ],
            [
              35.512282,
              33.147409
            ],
            [
              35.517656,
              33.172886
            ],
            [
              35.520033,
              33.222185
            ],
            [
              35.527784,
              33.244251
            ],
            [
              35.53162426613791,
              33.25
            ],
            [
              35.55,
              33.25
            ],
            [
              35.55,
              32.85
            ],
            [
              35.15,
              32.85
            ],
            [
              35.15,
              33.086197703253454
            ]
          ]
        ]
      }
    },
    {
      "type": "Feature",
      "properties": {
        "id": "lower-galilee",
        "name_he": "הגליל התחתון",
        "name_en": "Lower Galilee (Folded Hills with Basalt Caps)",
        "rock_summary_he": "גיר ודולומיט מקופלים בפחות עוצמה מהגליל העליון, עם כתמי בזלת ניאוגנית מפוזרים",
        "description_he": "בניגוד לגליל העליון, הגליל התחתון נמוך יותר ומתאפיין בקפלים עדינים היוצרים סדרת רכסים ועמקים מקבילים (כמו הר תבור, רכס יודפת). כתמי בזלת קדומים (כיסוי בזלתי מהניאוגן) פזורים על פני האזור ומעידים על פעילות געשית מוקדמת יותר מזו של הגולן. השילוב של קרקע בזלתית פורייה עם קרקע טרשית יוצר פסיפס נופי מגוון שהיסטורית אפשר גם חקלאות וגם רעייה.",
        "color": "#A9B36B",
        "sources": [
          {
            "title": "גאולוגיה של ישראל - ויקיפדיה",
            "url": "https://he.wikipedia.org/wiki/גאולוגיה_של_ישראל"
          }
        ]
      },
      "geometry": {
        "type": "Polygon",
        "coordinates": [
          [
            [
              35.05,
              32.84680249779045
            ],
            [
              35.053533694309664,
              32.85
            ],
            [
              35.55,
              32.85
            ],
            [
              35.55,
              32.6
            ],
            [
              35.05,
              32.6
            ],
            [
              35.05,
              32.84680249779045
            ]
          ]
        ]
      }
    },
    {
      "type": "Feature",
      "properties": {
        "id": "samaria-hills",
        "name_he": "הרי השומרון",
        "name_en": "Samarian Hills",
        "rock_summary_he": "דולומיט וגיר, תצורות ורדים ובענה, טורון-קנומן עליון, כ-93 מיליון שנה",
        "description_he": "הרי השומרון הם המשך דרומי של רכס הגליל, עם תצורות ורדים ובענה החושפות דולומיט קשה היוצר טרשים ומצוקים, לצד קירטוף נרחב. האזור נחשב לאגן ניקוז מרכזי המזין את אקוויפר ההר, ובו בקעות פוריות (כמו בקעת דותן) בין הגבעות. יש להצביע על ההבדל בין הרי השומרון המפותלים יותר לבין רכס הרי יהודה החד יותר שמדרום.",
        "color": "#CDB077",
        "sources": [
          {
            "title": "חבורת יהודה - ויקיפדיה",
            "url": "https://he.wikipedia.org/wiki/חבורת_יהודה"
          }
        ]
      },
      "geometry": {
        "type": "Polygon",
        "coordinates": [
          [
            [
              34.85,
              32.33263554860389
            ],
            [
              34.87322,
              32.430325
            ],
            [
              34.90162569330488,
              32.55
            ],
            [
              35.35,
              32.55
            ],
            [
              35.35,
              31.95
            ],
            [
              34.85,
              31.95
            ],
            [
              34.85,
              32.33263554860389
            ]
          ]
        ]
      }
    },
    {
      "type": "Feature",
      "properties": {
        "id": "judean-hills",
        "name_he": "הרי יהודה",
        "name_en": "Judean Hills",
        "rock_summary_he": "דולומיט וגיר קשה, חבורת יהודה, קנומן-טורון, כ-100-90 מיליון שנה",
        "description_he": "הרי יהודה בנויים ברובם מסלעי חבורת יהודה - דולומיט וגיר קשים המהווים את אקוויפר ההר המרכזי של הארץ. כאן ריכוז מערות הקרסט המרשימות ביותר בישראל, כולל מערת הנטיפים (אבשלום) ומערת שורק, שנוצרו מהמסת הסלע הקרבונטי לאורך מיליוני שנים. חשוב להסביר את הקשר בין המבנה הגיאולוגי הזה לבין הפריסה ההיסטורית של יישובים סביב מעיינות קרסט (כמו עין כרם, ליפתא).",
        "color": "#D2BA84",
        "sources": [
          {
            "title": "חבורת יהודה - ויקיפדיה",
            "url": "https://he.wikipedia.org/wiki/חבורת_יהודה"
          }
        ]
      },
      "geometry": {
        "type": "Polygon",
        "coordinates": [
          [
            [
              34.9,
              31.95
            ],
            [
              35.35,
              31.95
            ],
            [
              35.35,
              31.65
            ],
            [
              34.9,
              31.65
            ],
            [
              34.9,
              31.95
            ]
          ]
        ]
      }
    },
    {
      "type": "Feature",
      "properties": {
        "id": "judean-desert",
        "name_he": "מדבר יהודה",
        "name_en": "Judean Desert",
        "rock_summary_he": "קירטון וגיר (חבורת הר הצופים), פלאוקן-אאוקן, עם דולומיט חבורת יהודה בעמקים, כ-90-56 מיליון שנה",
        "description_he": "מדבר יהודה הוא מדרון הגשם-הצל המזרחי של הרי יהודה, היורד בתלילות לעבר בקע ים המלח ויוצר את אחד ההבדלים הטופוגרפיים החדים בעולם לאורך מרחק קצר. נחלים איתנים (קדרון, פרת, דרגות) חתרו קניונים עמוקים בסלעי הגיר והקירטון, וחשפו את מה שמכונה 'הפרצוף הדולומיטי' של המדבר. האקלים הצחיח יוצר ניגוד קיצוני מול ירושלים הסמוכה, ומסביר תופעות כמו מפלי מים איתנים (עין גדי) הנובעים ממגע סלעים.",
        "color": "#C9A05A",
        "sources": [
          {
            "title": "'הפרצוף הדולומיטי' של מדבר יהודה - האוניברסיטה העברית",
            "url": "https://earth.huji.ac.il/sites/default/files/earth/files/01.melah_6_raz.pdf"
          }
        ]
      },
      "geometry": {
        "type": "Polygon",
        "coordinates": [
          [
            [
              35.2,
              31.9
            ],
            [
              35.5,
              31.9
            ],
            [
              35.5,
              31.680450714458367
            ],
            [
              35.480139,
              31.641119
            ],
            [
              35.464222,
              31.568565
            ],
            [
              35.458745,
              31.494409
            ],
            [
              35.459055,
              31.492808
            ],
            [
              35.459158,
              31.491877
            ],
            [
              35.458745,
              31.491567
            ],
            [
              35.458125,
              31.491929
            ],
            [
              35.458538,
              31.491619
            ],
            [
              35.457128,
              31.433524
            ],
            [
              35.456884,
              31.423509
            ],
            [
              35.452854,
              31.400823
            ],
            [
              35.435077,
              31.360619
            ],
            [
              35.42821360797666,
              31.35
            ],
            [
              35.2,
              31.35
            ],
            [
              35.2,
              31.9
            ]
          ]
        ]
      }
    },
    {
      "type": "Feature",
      "properties": {
        "id": "mount-carmel-range",
        "name_he": "רכס הכרמל",
        "name_en": "Mount Carmel Range",
        "rock_summary_he": "גיר וקירטון, סנון-אאוקן, כ-90-40 מיליון שנה, בכיוון מבני חריג צפון-מערב/דרום-מזרח",
        "description_he": "הכרמל בולט בכיוונו המבני החריג (צפון-מערב-דרום-מזרח) בהשוואה לשאר ההר המרכזי, תוצאה של מערכת קימוט נפרדת. הגיר הרך יחסית של הרכס עבר קירסוט אינטנסיבי שיצר אלפי מערות, ביניהן מערות נחל המערות המפורסמות (מערת הטבון) שבהן נמצאו שרידי אדם קדמון. יש להדגיש למטיילים את הניגוד בין מדרונות הכרמל המערביים המיוערים לבין המדרון המזרחי החד היורד לעמק יזרעאל.",
        "color": "#9FAE6E",
        "sources": [
          {
            "title": "גאולוגיה של הכרמל - ויקיפדיה",
            "url": "https://he.wikipedia.org/wiki/גאולוגיה_של_הכרמל"
          }
        ]
      },
      "geometry": {
        "type": "Polygon",
        "coordinates": [
          [
            [
              34.95,
              32.78
            ],
            [
              35.15,
              32.78
            ],
            [
              35.15,
              32.62
            ],
            [
              34.95,
              32.62
            ],
            [
              34.95,
              32.78
            ]
          ]
        ]
      }
    },
    {
      "type": "Feature",
      "properties": {
        "id": "coastal-kurkar-ridges",
        "name_he": "רכסי הכורכר וחולות מישור החוף",
        "name_en": "Coastal Kurkar Ridges & Dunes",
        "rock_summary_he": "כורכר (חמרן מאובן) וחולות קוורצים, פלייסטוקן-הולוקן, כ-100 אלף שנה עד היום",
        "description_he": "לאורך רצועת החוף מתפתחים 3-4 רכסי כורכר תת-מקבילים לקו החוף, כל אחד נוצר בעידן קפיאה/הפשרה שונה שבו רמת הים הייתה שונה. הכורכר (חול ים שהתגבש בעזרת סיד) שימש כמחצב עתיק לבנייה (מגדל, קיסריה, יפו) וכיום נשחק ומתמוטט בצוקי החוף, בעיה נופית וסביבתית עכשווית. בין הרכסים נוצרים 'בקעים' - עמקים צרים ופוריים ששימשו לחקלאות ולביצות (כמו ביצות הקישון בעבר).",
        "color": "#E8CC7E",
        "sources": [
          {
            "title": "מצוקי הכורכר בחוף הים התיכון של ישראל - מטח",
            "url": "https://kotar.cet.ac.il/kotarapp/index/Chapter.aspx?nBookID=99446019&nTocEntryID=99447953"
          },
          {
            "title": "רכסי הכורכר - שביל הים",
            "url": "https://israelseatrail.org.il/רכסי-הכורכר/אוקיאנוגרפיה-וגיאולוגיה/"
          }
        ]
      },
      "geometry": {
        "type": "Polygon",
        "coordinates": [
          [
            [
              34.25,
              31.35258524182846
            ],
            [
              34.281423,
              31.376695
            ],
            [
              34.301606,
              31.407701
            ],
            [
              34.348399,
              31.437649
            ],
            [
              34.368175,
              31.468166
            ],
            [
              34.44337,
              31.534573
            ],
            [
              34.47877,
              31.578274
            ],
            [
              34.481204,
              31.583141
            ],
            [
              34.489513,
              31.600409
            ],
            [
              34.513927,
              31.627143
            ],
            [
              34.602712,
              31.757758
            ],
            [
              34.60963,
              31.76553
            ],
            [
              34.665945,
              31.873887
            ],
            [
              34.693207,
              31.926459
            ],
            [
              34.711925,
              31.951606
            ],
            [
              34.743337,
              32.039862
            ],
            [
              34.743988,
              32.044623
            ],
            [
              34.742686,
              32.055609
            ],
            [
              34.743337,
              32.06037
            ],
            [
              34.757009,
              32.066596
            ],
            [
              34.837657,
              32.280707
            ],
            [
              34.85,
              32.33263554860389
            ],
            [
              34.85,
              31.2
            ],
            [
              34.252653023072696,
              31.2
            ],
            [
              34.25,
              31.207060506335285
            ],
            [
              34.25,
              31.35258524182846
            ]
          ]
        ]
      }
    },
    {
      "type": "Feature",
      "properties": {
        "id": "hula-valley",
        "name_he": "בקעת החולה",
        "name_en": "Hula Valley",
        "rock_summary_he": "משקעי אגם וביצה (טורף וחרסית) על גבי בזלת, קוורטרני, עד כ-2 מיליון שנה",
        "description_he": "בקעת החולה היא גרבן (בקע שקוע) צר בקצה הצפוני של מערכת השבר הסורי-אפריקאי, שהיה מלא באגם וביצה עד לייבוש בשנות ה-50. מתחתיה מסתתרות שכבות בזלת עבות שחוסמות את זרימת המים דרומה ותרמו להיווצרות הביצה מלכתחילה. כיום ניתן להראות למטיילים שכבות כורכר וטורף (peat) חשופות המעידות על ההיסטוריה הימית-ביצתית של האזור.",
        "color": "#6E8F4E",
        "sources": [
          {
            "title": "בקעת הירדן - ויקיפדיה",
            "url": "https://he.wikipedia.org/wiki/בקעת_הירדן"
          }
        ]
      },
      "geometry": {
        "type": "Polygon",
        "coordinates": [
          [
            [
              35.55,
              33.25
            ],
            [
              35.588616895989816,
              33.25
            ],
            [
              35.597754,
              33.244354
            ],
            [
              35.597858,
              33.24438
            ],
            [
              35.598064,
              33.244251
            ],
            [
              35.603852,
              33.240091
            ],
            [
              35.603892,
              33.240323
            ],
            [
              35.604576,
              33.244251
            ],
            [
              35.604576,
              33.244354
            ],
            [
              35.61104364624926,
              33.25
            ],
            [
              35.65,
              33.25
            ],
            [
              35.65,
              33.03
            ],
            [
              35.55,
              33.03
            ],
            [
              35.55,
              33.25
            ]
          ]
        ]
      }
    },
    {
      "type": "Feature",
      "properties": {
        "id": "kinneret-basin",
        "name_he": "אגן הכנרת",
        "name_en": "Sea of Galilee (Kinneret) Basin",
        "rock_summary_he": "תצורת גשר (חוואר, פליוקן) ותצורת עובדיה (משקעי אגם, פלייסטוקן) מתחת לכיסוי בזלת",
        "description_he": "אגן הכנרת הוא שקע טקטוני מוקף פרשות מים בזלתיות, ובשוליו נחשפת תצורת גשר הפליוקנית ותצורת עובדיה מהפלייסטוקן - משקעי אגם קדום הכוללים חול, סחף וחרסית שנוצרו במחזוריות עם שינויי מפלס המים. אתר עובדיה הפרהיסטורי הידוע נחשף בדיוק בשכבות אלה, מה שהופך את האזור למקרה ייחודי לחיבור בין גיאולוגיה לארכיאולוגיה. כיסוי הבזלת שמעל קובע את פוריות הקרקע סביב האגם.",
        "color": "#5B7A9E",
        "sources": [
          {
            "title": "גיאולוגיה - איגוד ערים כינרת",
            "url": "https://ikinneret.org.il/מידע-ושירותים/גיאולוגיה/"
          }
        ]
      },
      "geometry": {
        "type": "Polygon",
        "coordinates": [
          [
            [
              35.48,
              32.92
            ],
            [
              35.65,
              32.92
            ],
            [
              35.65,
              32.68528699117822
            ],
            [
              35.640226,
              32.680999
            ],
            [
              35.63794864601292,
              32.68
            ],
            [
              35.62751779389633,
              32.68
            ],
            [
              35.612334,
              32.681535
            ],
            [
              35.611758,
              32.6819
            ],
            [
              35.612224,
              32.681546
            ],
            [
              35.60968183321416,
              32.68
            ],
            [
              35.48,
              32.68
            ],
            [
              35.48,
              32.92
            ]
          ]
        ]
      }
    },
    {
      "type": "Feature",
      "properties": {
        "id": "lisan-formation-dead-sea",
        "name_he": "תצורת הלשון וסביבות ים המלח",
        "name_en": "Lisan Formation / Dead Sea Environs",
        "rock_summary_he": "חוואר, ארגוניט וחרסית מסורגים (וארווים), פלייסטוקן עליון, כ-70-14 אלף שנה",
        "description_he": "תצורת הלשון היא סדרת שכבות דקות ומסורגות (וארווים עונתיים) של ארגוניט וחרסית, שהצטברו בקרקעית ימת הלשון - אגם קדום גדול בהרבה מים המלח של היום. השכבות הרכות והמסולסלות (שכונות 'חוואר הלשון') נוחות לחתוך וקריאה כמו טבעות עץ, ומספרות על שינויי אקלים קדומים. באזור ים המלח כיום תהליכי המסת מלח בתת-הקרקע יוצרים בורות שקיעה מסוכנים - תופעה חשובה להסביר בכל סיור.",
        "color": "#C7BFA0",
        "sources": [
          {
            "title": "ימת הלשון - ויקיפדיה",
            "url": "https://he.wikipedia.org/wiki/ימת_הלשון"
          }
        ]
      },
      "geometry": {
        "type": "Polygon",
        "coordinates": [
          [
            [
              35.35,
              31.85
            ],
            [
              35.5,
              31.85
            ],
            [
              35.5,
              31.680450714458367
            ],
            [
              35.480139,
              31.641119
            ],
            [
              35.464222,
              31.568565
            ],
            [
              35.458745,
              31.494409
            ],
            [
              35.459055,
              31.492808
            ],
            [
              35.459158,
              31.491877
            ],
            [
              35.458745,
              31.491567
            ],
            [
              35.458125,
              31.491929
            ],
            [
              35.458538,
              31.491619
            ],
            [
              35.457128,
              31.433524
            ],
            [
              35.456884,
              31.423509
            ],
            [
              35.452854,
              31.400823
            ],
            [
              35.435077,
              31.360619
            ],
            [
              35.416473,
              31.331835
            ],
            [
              35.423915,
              31.324601
            ],
            [
              35.422261,
              31.303
            ],
            [
              35.408205,
              31.282019
            ],
            [
              35.3957,
              31.25768
            ],
            [
              35.401177,
              31.230291
            ],
            [
              35.410686,
              31.204608
            ],
            [
              35.421331,
              31.184506
            ],
            [
              35.436214,
              31.159546
            ],
            [
              35.443242,
              31.132209
            ],
            [
              35.438488,
              31.103736
            ],
            [
              35.391565,
              31.023947
            ],
            [
              35.38632853484641,
              31.0
            ],
            [
              35.35,
              31.0
            ],
            [
              35.35,
              31.85
            ]
          ]
        ]
      }
    },
    {
      "type": "Feature",
      "properties": {
        "id": "northern-arava-hazeva",
        "name_he": "הערבה הצפונית ותצורת חצבה",
        "name_en": "Northern Arava & Hazeva Formation",
        "rock_summary_he": "קונגלומרט, חרסית וגיר אגמי, אוליגוקן-פליוקן, כ-30-3 מיליון שנה",
        "description_he": "תצורת חצבה מייצגת מערכת נהרות וימות עתיקות שהזרימו משקעים דרומה לתוך בקע ים המלח המתפתח, לפני שהערבה קיבלה את צורתה הנוכחית. השכבות האדמדמות של קונגלומרט וחרסית נחשפות היטב לאורך צוקי הערבה ומספרות את סיפור ניתוק מערכות הניקוז מהים התיכון. לאורך קו השבר עצמו בולטים גם מעיינות חמים (כמו חמי יואב) הקשורים לפעילות טקטונית מתמשכת.",
        "color": "#B5622E",
        "sources": [
          {
            "title": "גאולוגיה והתפתחות הנוף בערבה הצפונית",
            "url": "https://www.adssc.org/wp-content/uploads/2019/04/journal6-2-5.pdf"
          }
        ]
      },
      "geometry": {
        "type": "Polygon",
        "coordinates": [
          [
            [
              35.15,
              31.0
            ],
            [
              35.38632853484641,
              31.0
            ],
            [
              35.385158,
              30.994647
            ],
            [
              35.385261,
              30.963279
            ],
            [
              35.374099,
              30.945141
            ],
            [
              35.34711,
              30.92271
            ],
            [
              35.334928,
              30.912585
            ],
            [
              35.322216,
              30.88995
            ],
            [
              35.319528,
              30.867316
            ],
            [
              35.320045,
              30.84494
            ],
            [
              35.316635,
              30.822823
            ],
            [
              35.310847,
              30.813314
            ],
            [
              35.293897,
              30.800188
            ],
            [
              35.286145,
              30.792333
            ],
            [
              35.279531,
              30.780241
            ],
            [
              35.27612,
              30.768976
            ],
            [
              35.271573,
              30.743706
            ],
            [
              35.263882,
              30.719967
            ],
            [
              35.263821,
              30.71978
            ],
            [
              35.205324,
              30.617099
            ],
            [
              35.16400045522863,
              30.5
            ],
            [
              35.15,
              30.5
            ],
            [
              35.15,
              31.0
            ]
          ]
        ]
      }
    },
    {
      "type": "Feature",
      "properties": {
        "id": "golan-cover-basalt",
        "name_he": "בזלות הגולן הקדומות (בזלת הכיסוי)",
        "name_en": "Older Golan 'Cover' Basalt (Pliocene)",
        "rock_summary_he": "בזלת כיסוי, פליוקן תחתון, כ-5.5-3.5 מיליון שנה",
        "description_he": "זוהי שכבת הבזלת העתיקה והתחתונה ביותר ברמת הגולן, ששימשה בסיס להתפתחות שאר הרמה. באזורים בהם היא חשופה (כמו קניון הימית והגמלא) נחתכים בה קניונים עמוקים וצרים המספרים על מחזורי שפיעה של מים לאורך זמן רב. הבזלת הקדומה נבדלת מהבזלת הצעירה בעובי הבליה ובפיתוח קרקע אדמדמה עמוקה יותר מעליה.",
        "color": "#5C5648",
        "sources": [
          {
            "title": "גאולוגיה של הגולן - ויקיפדיה",
            "url": "https://he.wikipedia.org/wiki/גאולוגיה_של_הגולן"
          }
        ]
      },
      "geometry": {
        "type": "Polygon",
        "coordinates": [
          [
            [
              35.65,
              33.0
            ],
            [
              35.85,
              33.0
            ],
            [
              35.85,
              32.896217257927255
            ],
            [
              35.849729,
              32.895823
            ],
            [
              35.83805,
              32.866031
            ],
            [
              35.841874,
              32.853577
            ],
            [
              35.834226,
              32.827946
            ],
            [
              35.784203,
              32.777949
            ],
            [
              35.75759,
              32.744347
            ],
            [
              35.757435,
              32.744282
            ],
            [
              35.740175,
              32.740535
            ],
            [
              35.685191,
              32.711234
            ],
            [
              35.652015,
              32.686171
            ],
            [
              35.65,
              32.68528699117822
            ],
            [
              35.65,
              33.0
            ]
          ]
        ]
      }
    },
    {
      "type": "Feature",
      "properties": {
        "id": "golan-young-basalt",
        "name_he": "בזלות הגולן הצעירות",
        "name_en": "Younger Golan Basalt (Pleistocene Cinder Cones)",
        "rock_summary_he": "בזלת תצורות אורטל וגולן, פלייסטוקן, כ-1.6 מיליון שנה עד כ-100 אלף שנה",
        "description_he": "בצפון ובמרכז הגולן מפוזרים חרוטי סיגים געשיים מרשימים (כמו אביטל, בנטל ודב) שנוצרו בהתפרצויות האחרונות של שדה הבזלת, חלקן צעירות בכ-100 אלף שנה בלבד. זרימות לבה מרובות (כמו זרימות דלווה ומווייס) יצרו נוף מדורג של רמות בזלת שטוחות המופרדות בקרקעות קדומות מאובנות. חרוטי הסיגים הם יעד תצפית קלאסי המסביר בצורה ויזואלית את מנגנון ההתפרצות הוולקנית.",
        "color": "#3E3B36",
        "sources": [
          {
            "title": "על הרי געש והתפרצויות וולקניות ברמת הגולן - מוטי חזקיה",
            "url": "https://motihezkia.co.il/nature/על-הרי-געש-והתפרצויות-וולקניות-גיאולוגיה-ברמת-הגולן/"
          }
        ]
      },
      "geometry": {
        "type": "Polygon",
        "coordinates": [
          [
            [
              35.68,
              33.27
            ],
            [
              35.771027933230805,
              33.27
            ],
            [
              35.775625,
              33.264896
            ],
            [
              35.803633,
              33.248463
            ],
            [
              35.807664,
              33.201721
            ],
            [
              35.830195,
              33.189991
            ],
            [
              35.833399,
              33.161129
            ],
            [
              35.822443,
              33.14157
            ],
            [
              35.811488,
              33.126765
            ],
            [
              35.811488,
              33.111908
            ],
            [
              35.848902,
              33.098678
            ],
            [
              35.845801,
              33.085423
            ],
            [
              35.85903,
              32.99021
            ],
            [
              35.864611,
              32.97773
            ],
            [
              35.88445305861722,
              32.95
            ],
            [
              35.68,
              32.95
            ],
            [
              35.68,
              33.27
            ]
          ]
        ]
      }
    },
    {
      "type": "Feature",
      "properties": {
        "id": "makhtesh-ramon",
        "name_he": "מכתש רמון",
        "name_en": "Makhtesh Ramon",
        "rock_summary_he": "חתך מלא מדולומיט וגבס טריאסי בתחתית ועד גיר וחול קרטיקוני בשוליים, כ-250-100 מיליון שנה",
        "description_he": "מכתש רמון הוא מכתש הסחיפה הגדול בעולם (כ-40 ק\"מ אורך, עד 500 מ' עומק), ובקירותיו נחשף חתך גיאולוגי מלא ורציף - מדולומיט וגבס טריאסי בתחתית, דרך חול וגיר יורה-קרטיקון, ועד לגיר ודולומיט הקרטיקון העליון בשפה. חשיפת מגמות אבן חול צבעוניות ('צבעי רמון') וגם דייקים וולקניים (כמו 'האצבע הצבועה') הופכת אותו למעבדת שדה גיאולוגית מובהקת. המכתש הוא האתר החשוב ביותר בישראל להוראת עקרונות הסטרטיגרפיה.",
        "color": "#D89B4A",
        "sources": [
          {
            "title": "מכתש רמון - ויקיפדיה",
            "url": "https://he.wikipedia.org/wiki/מכתש_רמון"
          },
          {
            "title": "הגיאולוגיה של מכתש רמון - החוויה המצפאית",
            "url": "https://mitzpe-ramon.co.il/הגיאולוגיה-של-מכתש-רמון/"
          }
        ]
      },
      "geometry": {
        "type": "Polygon",
        "coordinates": [
          [
            [
              34.72,
              30.68
            ],
            [
              34.98,
              30.68
            ],
            [
              34.98,
              30.55
            ],
            [
              34.72,
              30.55
            ],
            [
              34.72,
              30.68
            ]
          ]
        ]
      }
    },
    {
      "type": "Feature",
      "properties": {
        "id": "makhtesh-gadol-katan",
        "name_he": "המכתש הגדול והמכתש הקטן",
        "name_en": "Makhtesh Gadol & Makhtesh Katan",
        "rock_summary_he": "חול נוביארי (תצורת חצירה) וגיר קרטיקון תחתון, כ-140-100 מיליון שנה",
        "description_he": "המכתש הגדול (מכתש ירוחם, כ-14 ק\"מ אורך) והמכתש הקטן (מכתש חצירה, כ-8 ק\"מ אורך) הם שני מכתשי סחיפה נוספים בשרשרת הנגב, קטנים יותר ממכתש רמון וחושפים בעיקר חול נוביארי אדמדם מהקרטיקון התחתון. הניגוד הצבעוני בין החול האדום לגיר הבהיר שמעליו ברור לעין ומהווה הדגמה נוחה לתהליך הסחיפה הדיפרנציאלית. סמיכותם לערד ולדימונה הופכת אותם לעצירה נגישה להשוואה מול מכתש רמון הגדול יותר.",
        "color": "#CE8E3E",
        "sources": [
          {
            "title": "המכתש הגדול - ויקיפדיה",
            "url": "https://he.wikipedia.org/wiki/המכתש_הגדול"
          },
          {
            "title": "המכתש הקטן - ויקיפדיה",
            "url": "https://he.wikipedia.org/wiki/המכתש_הקטן"
          }
        ]
      },
      "geometry": {
        "type": "Polygon",
        "coordinates": [
          [
            [
              34.95,
              31.12
            ],
            [
              35.35,
              31.12
            ],
            [
              35.35,
              30.92511192634036
            ],
            [
              35.34711,
              30.92271
            ],
            [
              35.334928,
              30.912585
            ],
            [
              35.322216,
              30.88995
            ],
            [
              35.319528,
              30.867316
            ],
            [
              35.31992808813014,
              30.85
            ],
            [
              34.95,
              30.85
            ],
            [
              34.95,
              31.12
            ]
          ]
        ]
      }
    },
    {
      "type": "Feature",
      "properties": {
        "id": "avdat-plateau",
        "name_he": "רמת אבדת",
        "name_en": "Avdat Plateau (Avdat Group Limestone)",
        "rock_summary_he": "גיר וקירטון, חבורת אבדת, פלאוקן-אאוקן, כ-66-40 מיליון שנה",
        "description_he": "רמת אבדת היא רמה מדברית מתונת-תלילות הבנויה מסלעי גיר וקירטון של חבורת אבדת, המהווים את הגג הצעיר-יחסית שמעל שכבות המכתשים העתיקות יותר. השטח שימש בעבר את תושבי הנגב הקדומים (הנבטים) שפיתחו כאן שיטות קציר נגר וחקלאות צחיחה על בסיס הבנת נגר העילי על פני הסלע הקירטוני האטום למים. מבנה הרמה מדגים כיצד תשתית סלעית משפיעה ישירות על דפוסי התיישבות אנושית.",
        "color": "#D6C48C",
        "sources": [
          {
            "title": "Geology of Israel - Wikipedia",
            "url": "https://en.wikipedia.org/wiki/Geology_of_Israel"
          }
        ]
      },
      "geometry": {
        "type": "Polygon",
        "coordinates": [
          [
            [
              34.72,
              31.0
            ],
            [
              34.95,
              31.0
            ],
            [
              34.95,
              30.7
            ],
            [
              34.72,
              30.7
            ],
            [
              34.72,
              31.0
            ]
          ]
        ]
      }
    },
    {
      "type": "Feature",
      "properties": {
        "id": "eilat-mountains-basement",
        "name_he": "הרי אילת - בסיס פרקמברי",
        "name_en": "Eilat Mountains (Precambrian Basement)",
        "rock_summary_he": "גרניט, גניס וסלעי מטמורפים (כמו גניס טאבה, סכיסט אילת ורודד), פרקמבריון, כ-1000-600 מיליון שנה",
        "description_he": "הרי אילת הם הקצה הצפוני החשוף של המסיב הערבי-נובי, ובהם נחשף הסלע העתיק ביותר בישראל - קרוב למיליארד שנה. הגוונים האדמדמים-סגלגלים של הגרניט לצד מרקמי הגניס והסכיסט המקופלים יוצרים נוף הררי דרמטי (כמו הר שלמה) שונה לחלוטין מהרי הגיר שבצפון הארץ. באזור זה מתגלים גם עדויות למרבצי נחושת עתיקים (טוב שהודגם בתמנע הסמוכה) הקשורים לפעילות מגמטית פרקמברית.",
        "color": "#9C6B8C",
        "sources": [
          {
            "title": "שמורת טבע מסיב הרי אילת - רשות הטבע והגנים",
            "url": "https://www.parks.org.il/reserve-park/שמורת-טבע-מסיב-הרי-אילת/"
          }
        ]
      },
      "geometry": {
        "type": "Polygon",
        "coordinates": [
          [
            [
              34.9,
              29.75
            ],
            [
              35.009727396894284,
              29.75
            ],
            [
              35.002545,
              29.733096
            ],
            [
              34.995104,
              29.708162
            ],
            [
              34.989833,
              29.651964
            ],
            [
              34.980324,
              29.627004
            ],
            [
              34.966992,
              29.608116
            ],
            [
              34.95986,
              29.586206
            ],
            [
              34.955577,
              29.558987
            ],
            [
              34.951345,
              29.54564
            ],
            [
              34.944998,
              29.536851
            ],
            [
              34.927745,
              29.518012
            ],
            [
              34.91977,
              29.507392
            ],
            [
              34.915782,
              29.50023
            ],
            [
              34.915720859853785,
              29.5
            ],
            [
              34.9,
              29.5
            ],
            [
              34.9,
              29.75
            ]
          ]
        ]
      }
    },
    {
      "type": "Feature",
      "properties": {
        "id": "timna-nubian-sandstone",
        "name_he": "תמנע וחול נוביארי",
        "name_en": "Timna & Nubian Sandstone",
        "rock_summary_he": "חול נוביארי (תצורות אמיר ואם עשרין), קמבריון-קרטיקון תחתון, כ-500-140 מיליון שנה, עשיר בברזל ונחושת",
        "description_he": "מעל הבסיס הגרניטי הפרקמברי מונחים חולות אדומים-כתומים עשירים בברזל (החול הנוביארי), שנחשפים בפארק תמנע בתצורות נוף ייחודיות כמו עמודי שלמה וקשת הנוצרים מסחיפה דיפרנציאלית של שכבות חול בקשיות שונה. עשירות המינרלים במגע בין הגרניט לחול יצרה מרבצי נחושת שנוצלו כבר לפני כ-6,000 שנה - הכרייה העתיקה בעולם. הצבעוניות הדרמטית של האתר (אדום, כתום, לבן) הופכת אותו לדוגמה מצוינת להסבר תהליכי חמצון ברזל בסלע.",
        "color": "#C1592E",
        "sources": [
          {
            "title": "תמנע - עיצוב הנוף - מכון ישראלי לארכיאולוגיה",
            "url": "https://www.israeliarchaeology.org/תמנע-עיצוב-הנוף/"
          },
          {
            "title": "Umm Irna Formation - Wikipedia (related Nubian sandstone sequence)",
            "url": "https://en.wikipedia.org/wiki/Umm_Irna_Formation"
          }
        ]
      },
      "geometry": {
        "type": "Polygon",
        "coordinates": [
          [
            [
              34.9,
              30.0
            ],
            [
              35.07627004007101,
              30.0
            ],
            [
              35.074686,
              29.994604
            ],
            [
              35.074065,
              29.982564
            ],
            [
              35.070345,
              29.973727
            ],
            [
              35.065384,
              29.965976
            ],
            [
              35.061456,
              29.957346
            ],
            [
              35.054118,
              29.923394
            ],
            [
              35.053188,
              29.862623
            ],
            [
              35.048951,
              29.842314
            ],
            [
              35.009727396894284,
              29.75
            ],
            [
              34.9,
              29.75
            ],
            [
              34.9,
              30.0
            ]
          ]
        ]
      }
    }
  ]
}