{
  "type": "FeatureCollection",
  "note_he": "גרסה 1 – גבולות מקורבים (תיבות גיאוגרפיות פשוטות) לצורך ויזואליזציה ראשונית. יש להחליף בעתיד בשכבת GIS מדויקת (למשל ממשל זמין / data.gov.il או רשות הטבע והגנים).",
  "features": [
    { "type": "Feature", "properties": { "id": "golan", "name_he": "רמת הגולן", "name_en": "Golan Heights", "color": "#8e6b4f" },
      "geometry": { "type": "Polygon", "coordinates": [[[35.62,32.60],[35.95,32.60],[35.95,33.27],[35.62,33.27],[35.62,32.60]]] } },
    { "type": "Feature", "properties": { "id": "hula-valley", "name_he": "עמק החולה", "name_en": "Hula Valley", "color": "#6fae5f" },
      "geometry": { "type": "Polygon", "coordinates": [[[35.55,33.02],[35.63,33.02],[35.63,33.27],[35.55,33.27],[35.55,33.02]]] } },
    { "type": "Feature", "properties": { "id": "galilee-upper", "name_he": "הגליל העליון", "name_en": "Upper Galilee", "color": "#3f7d4f" },
      "geometry": { "type": "Polygon", "coordinates": [[[35.15,32.85],[35.57,32.85],[35.57,33.27],[35.15,33.27],[35.15,32.85]]] } },
    { "type": "Feature", "properties": { "id": "galilee-lower", "name_he": "הגליל התחתון", "name_en": "Lower Galilee", "color": "#5a9a63" },
      "geometry": { "type": "Polygon", "coordinates": [[[35.10,32.60],[35.55,32.60],[35.55,32.85],[35.10,32.85],[35.10,32.60]]] } },
    { "type": "Feature", "properties": { "id": "jezreel-valley", "name_he": "עמק יזרעאל", "name_en": "Jezreel Valley", "color": "#c9b458" },
      "geometry": { "type": "Polygon", "coordinates": [[[35.05,32.55],[35.45,32.55],[35.45,32.72],[35.05,32.72],[35.05,32.55]]] } },
    { "type": "Feature", "properties": { "id": "carmel", "name_he": "הכרמל", "name_en": "Mount Carmel", "color": "#4f6d3f" },
      "geometry": { "type": "Polygon", "coordinates": [[[34.95,32.62],[35.08,32.62],[35.08,32.78],[34.95,32.78],[34.95,32.62]]] } },
    { "type": "Feature", "properties": { "id": "sharon", "name_he": "השרון", "name_en": "Sharon Plain", "color": "#e0c568" },
      "geometry": { "type": "Polygon", "coordinates": [[[34.80,32.10],[35.05,32.10],[35.05,32.55],[34.80,32.55],[34.80,32.10]]] } },
    { "type": "Feature", "properties": { "id": "samaria", "name_he": "השומרון", "name_en": "Samaria", "color": "#b5824a" },
      "geometry": { "type": "Polygon", "coordinates": [[[34.90,31.95],[35.50,31.95],[35.50,32.55],[34.90,32.55],[34.90,31.95]]] } },
    { "type": "Feature", "properties": { "id": "jordan-valley", "name_he": "בקעת הירדן ועמק בית שאן", "name_en": "Jordan Valley & Beit She'an Valley", "color": "#a6c36f" },
      "geometry": { "type": "Polygon", "coordinates": [[[35.35,31.85],[35.62,31.85],[35.62,32.60],[35.35,32.60],[35.35,31.85]]] } },
    { "type": "Feature", "properties": { "id": "coastal-plain-south", "name_he": "מישור החוף הדרומי", "name_en": "Southern Coastal Plain", "color": "#e8d9a0" },
      "geometry": { "type": "Polygon", "coordinates": [[[34.60,31.20],[34.85,31.20],[34.85,32.10],[34.60,32.10],[34.60,31.20]]] } },
    { "type": "Feature", "properties": { "id": "shfela", "name_he": "השפלה", "name_en": "Shfela (Judean Lowlands)", "color": "#cfa86a" },
      "geometry": { "type": "Polygon", "coordinates": [[[34.70,31.60],[35.00,31.60],[35.00,31.90],[34.70,31.90],[34.70,31.60]]] } },
    { "type": "Feature", "properties": { "id": "jerusalem-hills", "name_he": "הרי יהודה וירושלים", "name_en": "Judean Hills & Jerusalem", "color": "#a08064" },
      "geometry": { "type": "Polygon", "coordinates": [[[35.00,31.60],[35.35,31.60],[35.35,31.95],[35.00,31.95],[35.00,31.60]]] } },
    { "type": "Feature", "properties": { "id": "judean-desert", "name_he": "מדבר יהודה", "name_en": "Judean Desert", "color": "#d9b88a" },
      "geometry": { "type": "Polygon", "coordinates": [[[35.25,31.35],[35.50,31.35],[35.50,31.85],[35.25,31.85],[35.25,31.35]]] } },
    { "type": "Feature", "properties": { "id": "dead-sea", "name_he": "ים המלח ובקעתו", "name_en": "Dead Sea Basin", "color": "#3f6f8f" },
      "geometry": { "type": "Polygon", "coordinates": [[[35.35,31.05],[35.55,31.05],[35.55,31.75],[35.35,31.75],[35.35,31.05]]] } },
    { "type": "Feature", "properties": { "id": "negev-north", "name_he": "הנגב הצפוני", "name_en": "Northern Negev", "color": "#e0c48a" },
      "geometry": { "type": "Polygon", "coordinates": [[[34.40,31.00],[35.10,31.00],[35.10,31.50],[34.40,31.50],[34.40,31.00]]] } },
    { "type": "Feature", "properties": { "id": "negev-central", "name_he": "הנגב המרכזי (רמת הנגב)", "name_en": "Central Negev (Ramat HaNegev)", "color": "#d3a86a" },
      "geometry": { "type": "Polygon", "coordinates": [[[34.60,30.50],[35.10,30.50],[35.10,31.00],[34.60,31.00],[34.60,30.50]]] } },
    { "type": "Feature", "properties": { "id": "arava", "name_he": "הערבה", "name_en": "Arava Valley", "color": "#c99a6a" },
      "geometry": { "type": "Polygon", "coordinates": [[[35.00,29.55],[35.35,29.55],[35.35,31.00],[35.00,31.00],[35.00,29.55]]] } },
    { "type": "Feature", "properties": { "id": "eilat", "name_he": "אילת ומפרץ אילת", "name_en": "Eilat & the Gulf of Eilat", "color": "#3f8fa0" },
      "geometry": { "type": "Polygon", "coordinates": [[[34.85,29.50],[34.98,29.50],[34.98,29.65],[34.85,29.65],[34.85,29.50]]] } }
  ]
}
